*******************************************************************************
 Revised: April 12, 2021                Venus                           299 / 2
 
 PHYSICAL DATA (updated 2020-Oct-19):
  Vol. Mean Radius (km) =  6051.84+-0.01 Density (g/cm^3)      =  5.204
  Mass x10^23 (kg)      =    48.685      Volume (x10^10 km^3)  = 92.843
  Sidereal rot. period  =   243.018484 d Sid. Rot. Rate (rad/s)= -0.00000029924
  Mean solar day        =   116.7490 d   Equ. gravity  m/s^2   =  8.870
  Mom. of Inertia       =     0.33       Core radius (km)      = ~3200
  Geometric Albedo      =     0.65       Potential Love # k2   = ~0.25
  GM (km^3/s^2)         = 324858.592     Equatorial Radius, Re = 6051.893 km
  GM 1-sigma (km^3/s^2) =    +-0.006     Mass ratio (Sun/Venus)= 408523.72
  Atmos. pressure (bar) =  90            Max. angular diam.    =   60.2"
  Mean Temperature (K)  = 735            Visual mag. V(1,0)    =   -4.40
  Obliquity to orbit    = 177.3 deg      Hill's sphere rad.,Rp =  167.1
  Sidereal orb. per., y =   0.61519726   Orbit speed, km/s     =   35.021
  Sidereal orb. per., d = 224.70079922   Escape speed, km/s    =   10.361
                                 Perihelion  Aphelion    Mean
  Solar Constant (W/m^2)         2759         2614       2650
  Maximum Planetary IR (W/m^2)    153         153         153
  Minimum Planetary IR (W/m^2)    153         153         153
*******************************************************************************


*******************************************************************************
Ephemeris / WWW_USER Thu Oct  6 10:32:01 2022 Pasadena, USA      / Horizons
*******************************************************************************
Target body name: Venus (299)                     {source: DE441}
Center body name: Sun (10)                        {source: DE441}
Center-site name: BODY CENTER
*******************************************************************************
Start time      : A.D. 2023-May-24 02:00:00.0000 TDB
Stop  time      : A.D. 2023-May-24 04:00:00.0000 TDB
Step-size       : 1 minutes
*******************************************************************************
Center geodetic : 0.00000000,0.00000000,0.0000000 {E-lon(deg),Lat(deg),Alt(km)}
Center cylindric: 0.00000000,0.00000000,0.0000000 {E-lon(deg),Dxy(km),Dz(km)}
Center radii    : 696000.0 x 696000.0 x 696000.0 k{Equator, meridian, pole}    
Output units    : KM-S
Output type     : GEOMETRIC cartesian states
Output format   : 2x (pos. & vel. w/uncertainties: XYZ)
Reference frame : Ecliptic of J2000.0
*******************************************************************************
JDTDB
 State   : X       Y        Z     VX       VY        VZ
 1-sigma : X_s     Y_s      Z_s   VX_s     VY_s      VZ_s
*******************************************************************************************************************************************************
$$SOE
2460088.609722222 = A.D. 2023-May-24 02:38:00.0000 TDB 
 XYZ   : -1.058143323746120E+08  -1.991725026325137E+07   5.832308106250366E+06   6.254305155246878E+00  -3.457227298974852E+01  -8.355487735246427E-01
 sigmas:                   n.a.                    n.a.                    n.a.                    n.a.                    n.a.                    n.a.
2460088.610416667 = A.D. 2023-May-24 02:39:00.0000 TDB 
 XYZ   : -1.058139570961421E+08  -1.991932459583586E+07   5.832257972212730E+06   6.254977176895726E+00  -3.457214649107800E+01  -8.355858142715800E-01
 sigmas:                   n.a.                    n.a.                    n.a.                    n.a.                    n.a.                    n.a.
2460088.611111111 = A.D. 2023-May-24 02:40:00.0000 TDB 
 XYZ   : -1.058135817773509E+08  -1.992139892083004E+07   5.832207835952659E+06   6.255649195933047E+00  -3.457201997927639E+01  -8.356228546875375E-01
 sigmas:                   n.a.                    n.a.                    n.a.                    n.a.                    n.a.                    n.a.
2460088.611805555 = A.D. 2023-May-24 02:41:00.0000 TDB 
 XYZ   : -1.058132064182386E+08  -1.992347323823312E+07   5.832157697470175E+06   6.256321212358579E+00  -3.457189345434372E+01  -8.356598947725065E-01
 sigmas:                   n.a.                    n.a.                    n.a.                    n.a.                    n.a.                    n.a.
2460088.612500000 = A.D. 2023-May-24 02:42:00.0000 TDB 
 XYZ   : -1.058128310188054E+08  -1.992554754804429E+07   5.832107556765293E+06   6.256993226172066E+00  -3.457176691628008E+01  -8.356969345264691E-01
 sigmas:                   n.a.                    n.a.                    n.a.                    n.a.                    n.a.                    n.a.
2460088.613194444 = A.D. 2023-May-24 02:43:00.0000 TDB 
 XYZ   : -1.058124555790515E+08  -1.992762185026280E+07   5.832057413838038E+06   6.257665237373256E+00  -3.457164036508551E+01  -8.357339739494165E-01
 sigmas:                   n.a.                    n.a.                    n.a.                    n.a.                    n.a.                    n.a.
2460088.613888889 = A.D. 2023-May-24 02:44:00.0000 TDB 
 XYZ   : -1.058120800989770E+08  -1.992969614488784E+07   5.832007268688426E+06   6.258337245961885E+00  -3.457151380076006E+01  -8.357710130413309E-01
 sigmas:                   n.a.                    n.a.                    n.a.                    n.a.                    n.a.                    n.a.
2460088.614583333 = A.D. 2023-May-24 02:45:00.0000 TDB 
 XYZ   : -1.058117045785820E+08  -1.993177043191863E+07   5.831957121316480E+06   6.259009251937701E+00  -3.457138722330379E+01  -8.358080518022017E-01
 sigmas:                   n.a.                    n.a.                    n.a.                    n.a.                    n.a.                    n.a.
2460088.615277778 = A.D. 2023-May-24 02:46:00.0000 TDB 
 XYZ   : -1.058113290178668E+08  -1.993384471135438E+07   5.831906971722217E+06   6.259681255300444E+00  -3.457126063271678E+01  -8.358450902320129E-01
 sigmas:                   n.a.                    n.a.                    n.a.                    n.a.                    n.a.                    n.a.
2460088.615972222 = A.D. 2023-May-24 02:47:00.0000 TDB 
 XYZ   : -1.058109534168315E+08  -1.993591898319430E+07   5.831856819905658E+06   6.260353256049859E+00  -3.457113402899907E+01  -8.358821283307467E-01
 sigmas:                   n.a.                    n.a.                    n.a.                    n.a.                    n.a.                    n.a.
2460088.616666667 = A.D. 2023-May-24 02:48:00.0000 TDB 
 XYZ   : -1.058105777754761E+08  -1.993799324743760E+07   5.831806665866825E+06   6.261025254185688E+00  -3.457100741215071E+01  -8.359191660983942E-01
 sigmas:                   n.a.                    n.a.                    n.a.                    n.a.                    n.a.                    n.a.
2460088.617361111 = A.D. 2023-May-24 02:49:00.0000 TDB 
 XYZ   : -1.058102020938010E+08  -1.994006750408349E+07   5.831756509605734E+06   6.261697249707673E+00  -3.457088078217177E+01  -8.359562035349430E-01
 sigmas:                   n.a.                    n.a.                    n.a.                    n.a.                    n.a.                    n.a.
2460088.618055556 = A.D. 2023-May-24 02:50:00.0000 TDB 
 XYZ   : -1.058098263718062E+08  -1.994214175313120E+07   5.831706351122405E+06   6.262369242615560E+00  -3.457075413906231E+01  -8.359932406403683E-01
 sigmas:                   n.a.                    n.a.                    n.a.                    n.a.                    n.a.                    n.a.
2460088.618750000 = A.D. 2023-May-24 02:51:00.0000 TDB 
 XYZ   : -1.058094506094919E+08  -1.994421599457992E+07   5.831656190416863E+06   6.263041232909090E+00  -3.457062748282237E+01  -8.360302774146700E-01
 sigmas:                   n.a.                    n.a.                    n.a.                    n.a.                    n.a.                    n.a.
2460088.619444444 = A.D. 2023-May-24 02:52:00.0000 TDB 
 XYZ   : -1.058090748068583E+08  -1.994629022842887E+07   5.831606027489122E+06   6.263713220588005E+00  -3.457050081345204E+01  -8.360673138578285E-01
 sigmas:                   n.a.                    n.a.                    n.a.                    n.a.                    n.a.                    n.a.
2460088.620138889 = A.D. 2023-May-24 02:53:00.0000 TDB 
 XYZ   : -1.058086989639055E+08  -1.994836445467727E+07   5.831555862339206E+06   6.264385205652049E+00  -3.457037413095134E+01  -8.361043499698262E-01
 sigmas:                   n.a.                    n.a.                    n.a.                    n.a.                    n.a.                    n.a.
2460088.620833333 = A.D. 2023-May-24 02:54:00.0000 TDB 
 XYZ   : -1.058083230806337E+08  -1.995043867332432E+07   5.831505694967133E+06   6.265057188100967E+00  -3.457024743532035E+01  -8.361413857506488E-01
 sigmas:                   n.a.                    n.a.                    n.a.                    n.a.                    n.a.                    n.a.
2460088.621527778 = A.D. 2023-May-24 02:55:00.0000 TDB 
 XYZ   : -1.058079471570430E+08  -1.995251288436924E+07   5.831455525372924E+06   6.265729167934500E+00  -3.457012072655912E+01  -8.361784212002910E-01
 sigmas:                   n.a.                    n.a.                    n.a.                    n.a.                    n.a.                    n.a.
2460088.622222222 = A.D. 2023-May-24 02:56:00.0000 TDB 
 XYZ   : -1.058075711931336E+08  -1.995458708781125E+07   5.831405353556596E+06   6.266401145152389E+00  -3.456999400466772E+01  -8.362154563187314E-01
 sigmas:                   n.a.                    n.a.                    n.a.                    n.a.                    n.a.                    n.a.
